1  8820U 76039A   03044.71880252 -.00000004 +00000-0 +10000-3 0  9996
2  8820 109.8294 139.3273 0044320 327.8782 031.9206 06.38664631369171
